ISS (ZARYA)             
1 25544U 98067A   26092.84326290  .00011825  00000+0  22447-3 0  9991
2 25544  51.6328 312.9475 0006235 264.7845  95.2432 15.48729122560074
POISK                   
1 36086U 09060A   26092.84326290  .00011825  00000+0  22447-3 0  9999
2 36086  51.6328 312.9475 0006235 264.7845  95.2432 15.48729122559581
CSS (TIANHE)            
1 48274U 21035A   26092.83091262  .00032710  00000+0  36780-3 0  9995
2 48274  41.4672  61.1335 0003745 109.1274 250.9971 15.61894032281387
ISS (NAUKA)             
1 49044U 21066A   26092.84326290  .00011825  00000+0  22447-3 0  9997
2 49044  51.6328 312.9475 0006235 264.7845  95.2432 15.48729122559624
FREGAT DEB              
1 49271U 11037PF  26092.37108303  .00012132  00000+0  17437-1 0  9990
2 49271  51.6430 229.6413 0957721 113.6985 256.7265 12.40851016215633
CSS (WENTIAN)           
1 53239U 22085A   26092.83091262  .00032710  00000+0  36780-3 0  9998
2 53239  41.4672  61.1335 0003745 109.1274 250.9971 15.61894032281159
CSS (MENGTIAN)          
1 54216U 22143A   26092.83091262  .00032710  00000+0  36780-3 0  9999
2 54216  41.4672  61.1335 0003745 109.1274 250.9971 15.61894032281155
TIANZHOU-9              
1 64786U 25149A   26092.83091262  .00032710  00000+0  36780-3 0  9991
2 64786  41.4672  61.1335 0003745 109.1274 250.9971 15.61894032281158
PROGRESS-MS 32          
1 65586U 25204A   26092.84326290  .00011825  00000+0  22447-3 0  9994
2 65586  51.6328 312.9475 0006235 264.7845  95.2432 15.48729122554505
YOTSUBA-KULOVER         
1 65941U 98067XN  26092.56958340  .00581179  15194-3  13818-2 0  9991
2 65941  51.6153 292.2256 0007338 253.9638 106.0562 15.96044497 27292
BOTAN                   
1 65943U 98067XQ  26092.58411318  .00534399  12701-3  13629-2 0  9997
2 65943  51.6177 292.3509 0007335 248.5782 111.4444 15.94753553 27296
HRC MONOBLOCK CAMERA    
1 66052U 98067XR  26092.86064991  .00089308  00000+0  89054-3 0  9997
2 66052  51.6271 303.3082 0003834 212.1629 147.9133 15.64898008 26176
